OBJECT_NAME,OBJECT_ID,EPOCH,MEAN_MOTION,ECCENTRICITY,INCLINATION,RA_OF_ASC_NODE,ARG_OF_PERICENTER,MEAN_ANOMALY,EPHEMERIS_TYPE,CLASSIFICATION_TYPE,NORAD_CAT_ID,ELEMENT_SET_NO,REV_AT_EPOCH,BSTAR,MEAN_MOTION_DOT,MEAN_MOTION_DDOT
STARLINK-2494,2021-040BM,2026-06-25T19:33:20.764224,15.31696253,.0001168,53.1599,50.9975,90.2078,269.9057,0,U,48487,999,28303,.13935E-4,.67E-6,0
STARLINK-2063,2021-041A,2026-06-25T16:14:16.087776,15.31694745,.0000966,53.1609,344.4078,62.7205,297.3895,0,U,48553,999,28182,.67028E-4,.1715E-4,0
STARLINK-2139,2021-041B,2026-06-25T16:07:32.210112,15.31710557,.0001131,53.1591,344.3310,86.9798,273.1333,0,U,48554,999,28182,-.95024E-5,-.66E-5,0
STARLINK-2145,2021-041C,2026-06-25T19:30:19.389024,15.31703062,.0001088,53.1598,5.9179,90.0410,270.0716,0,U,48555,999,28151,.51035E-4,.1219E-4,0
STARLINK-2151,2021-041D,2026-06-25T19:21:22.082112,15.31723007,.0000682,53.1612,359.4423,89.4601,270.6479,0,U,48556,999,28161,.10707E-3,.2961E-4,0
STARLINK-2155,2021-041E,2026-06-25T20:09:10.588896,15.31706198,.0000984,53.1604,343.7031,91.5664,268.5450,0,U,48557,999,28184,.28689E-4,.526E-5,0
STARLINK-2166,2021-041F,2026-06-25T20:02:27.677184,15.31706929,.000117,53.1598,343.7126,103.0348,257.0784,0,U,48558,999,28098,.83828E-5,-.105E-5,0
STARLINK-2187,2021-041K,2026-06-25T20:00:01.999008,15.62836234,.0001512,53.1544,334.1820,80.9972,165.5749,0,U,48562,999,594,.11969E-1,.1227275E-1,0
STARLINK-2188,2021-041L,2026-06-25T16:34:23.635776,15.31693807,.0001304,53.1590,344.2643,69.3272,290.7869,0,U,48563,999,28182,.59003E-4,.1466E-4,0
STARLINK-2190,2021-041M,2026-06-25T16:20:57.089184,15.31716690,.0001597,53.1606,344.2880,64.3770,295.7396,0,U,48564,999,28182,-.10708E-3,-.3689E-4,0
STARLINK-2214,2021-041P,2026-06-25T19:23:36.325248,15.31706028,.0001181,53.1596,5.9030,88.8822,271.2315,0,U,48566,999,28151,.66082E-4,.1686E-4,0
STARLINK-2217,2021-041R,2026-06-25T16:47:52.432224,15.31717371,.0001369,53.1584,344.6409,145.6947,214.4143,0,U,48568,999,28181,.18348E-3,.5336E-4,0
STARLINK-2219,2021-041S,2026-06-25T16:27:40.320576,15.31700253,.0001249,53.1584,344.2750,83.8006,276.3137,0,U,48569,999,28182,.70749E-4,.1831E-4,0
STARLINK-2220,2021-041T,2026-06-26T01:09:26.692704,16.23614258,.0010652,53.1149,350.8575,321.4423,38.5855,0,U,48570,999,28173,.98174E-3,.2639762E-1,.11927E-4
STARLINK-2221,2021-041U,2026-06-25T16:53:10.378176,15.31701931,.0001318,53.1613,357.0332,86.9610,273.1542,0,U,48571,999,28164,-.38194E-4,-.155E-4,0
STARLINK-2222,2021-041V,2026-06-25T20:24:00.693792,15.31705863,.000118,53.1588,5.7177,94.0011,266.1126,0,U,48572,999,28152,.12026E-3,.3369E-4,0
STARLINK-2224,2021-041W,2026-06-25T20:22:42.360096,15.31700816,.0001301,53.1618,344.1694,100.8144,259.3004,0,U,48573,999,28183,-.71688E-4,-.2589E-4,0
STARLINK-2225,2021-041X,2026-06-25T18:46:28.723296,15.31703968,.0000979,53.1601,318.0887,55.3474,304.7619,0,U,48574,999,28219,.59867E-5,-.179E-5,0
STARLINK-2227,2021-041Y,2026-06-25T15:07:18.671808,15.31700516,.0001091,53.1592,306.0427,65.1570,294.9545,0,U,48575,999,28236,.1982E-3,.579E-4,0
STARLINK-2228,2021-041Z,2026-06-25T18:33:05.770944,15.31682725,.0001307,53.1608,318.2215,80.2940,279.8209,0,U,48576,999,28220,.39169E-3,.11802E-3,0
STARLINK-2231,2021-041AA,2026-06-25T17:34:49.363392,15.31703265,.0001213,53.1613,344.2569,83.4512,276.6628,0,U,48577,999,28182,.22276E-4,.326E-5,0
STARLINK-2232,2021-041AB,2026-06-25T19:49:00.854112,15.31704578,.0001105,53.1587,343.6522,89.8513,270.2615,0,U,48578,999,28184,.19172E-3,.5589E-4,0
STARLINK-2234,2021-041AD,2026-06-25T19:06:35.904960,15.31771616,.0000695,53.1610,318.0612,89.4131,270.6950,0,U,48580,999,28220,-.45587E-3,-.14515E-3,0
STARLINK-2235,2021-041AE,2026-06-25T19:08:08.060928,15.31701575,.0000965,53.1584,320.8957,58.0496,302.0599,0,U,48581,999,28215,.15134E-3,.4334E-4,0
STARLINK-2236,2021-041AF,2026-06-25T20:00:01.999008,15.40818852,.0001204,53.0525,321.0399,51.2541,162.1029,0,U,48582,999,589,.4833E-2,.206252E-2,0
STARLINK-2237,2021-041AG,2026-06-25T17:36:14.192640,15.31710297,.0001108,53.1593,6.3288,82.2032,277.9095,0,U,48583,999,28150,.2048E-3,.5997E-4,0
STARLINK-2241,2021-041AK,2026-06-25T20:03:53.174304,15.31682624,.0001348,53.1579,5.7894,80.8199,279.2955,0,U,48586,999,28151,.14459E-3,.4122E-4,0
STARLINK-2245,2021-041AN,2026-06-25T20:15:53.186976,15.31677536,.000152,53.1589,343.6071,83.6154,276.5021,0,U,48589,999,28184,.1363E-3,.3864E-4,0
STARLINK-2250,2021-041AS,2026-06-25T16:46:32.348064,15.31700085,.0001757,53.1597,357.4076,84.4074,275.7127,0,U,48593,999,28163,.52099E-5,-.204E-5,0
STARLINK-2251,2021-041AT,2026-06-25T16:40:31.562400,15.29354176,.0000781,53.1589,332.5069,43.4743,316.6319,0,U,48594,999,28198,-.20304E-4,-.941E-5,0
