STARLINK-2494           
1 48487U 21040BM  26176.81482366  .00000067  00000+0  13935-4 0  9995
2 48487  53.1599  50.9975 0001168  90.2078 269.9057 15.31696253283037
STARLINK-2063           
1 48553U 21041A   26176.67657509  .00001715  00000+0  67028-4 0  9990
2 48553  53.1609 344.4078 0000966  62.7205 297.3895 15.31694745281823
STARLINK-2139           
1 48554U 21041B   26176.67190058 -.00000660  00000+0 -95024-5 0  9990
2 48554  53.1591 344.3310 0001131  86.9798 273.1333 15.31710557281821
STARLINK-2145           
1 48555U 21041C   26176.81272441  .00001219  00000+0  51035-4 0  9996
2 48555  53.1598   5.9179 0001088  90.0410 270.0716 15.31703062281510
STARLINK-2151           
1 48556U 21041D   26176.80650558  .00002961  00000+0  10707-3 0  9990
2 48556  53.1612 359.4423 0000682  89.4601 270.6479 15.31723007281614
STARLINK-2155           
1 48557U 21041E   26176.83970589  .00000526  00000+0  28689-4 0  9997
2 48557  53.1604 343.7031 0000984  91.5664 268.5450 15.31706198281847
STARLINK-2166           
1 48558U 21041F   26176.83504256 -.00000105  00000+0  83828-5 0  9993
2 48558  53.1598 343.7126 0001170 103.0348 257.0784 15.31706929280980
STARLINK-2187           
1 48562U 21041K   26176.83335647  .01227275  00000+0  11969-1 0  9996
2 48562  53.1544 334.1820 0001512  80.9972 165.5749 15.62836234  5949
STARLINK-2188           
1 48563U 21041L   26176.69055134  .00001466  00000+0  59003-4 0  9996
2 48563  53.1590 344.2643 0001304  69.3272 290.7869 15.31693807281829
STARLINK-2190           
1 48564U 21041M   26176.68121631 -.00003689  00000+0 -10708-3 0  9991
2 48564  53.1606 344.2880 0001597  64.3770 295.7396 15.31716690281829
STARLINK-2214           
1 48566U 21041P   26176.80805932  .00001686  00000+0  66082-4 0  9990
2 48566  53.1596   5.9030 0001181  88.8822 271.2315 15.31706028281515
STARLINK-2217           
1 48568U 21041R   26176.69991241  .00005336  00000+0  18348-3 0  9995
2 48568  53.1584 344.6409 0001369 145.6947 214.4143 15.31717371281819
STARLINK-2219           
1 48569U 21041S   26176.68588334  .00001831  00000+0  70749-4 0  9990
2 48569  53.1584 344.2750 0001249  83.8006 276.3137 15.31700253281823
STARLINK-2220           
1 48570U 21041T   26177.04822561  .02639762  11927-4  98174-3 0  9994
2 48570  53.1149 350.8575 0010652 321.4423  38.5855 16.23614258281738
STARLINK-2221           
1 48571U 21041U   26176.70359234 -.00001550  00000+0 -38194-4 0  9999
2 48571  53.1613 357.0332 0001318  86.9610 273.1542 15.31701931281648
STARLINK-2222           
1 48572U 21041V   26176.85000803  .00003369  00000+0  12026-3 0  9994
2 48572  53.1588   5.7177 0001180  94.0011 266.1126 15.31705863281521
STARLINK-2224           
1 48573U 21041W   26176.84910139 -.00002589  00000+0 -71688-4 0  9991
2 48573  53.1618 344.1694 0001301 100.8144 259.3004 15.31700816281834
STARLINK-2225           
1 48574U 21041X   26176.78227689 -.00000179  00000+0  59867-5 0  9994
2 48574  53.1601 318.0887 0000979  55.3474 304.7619 15.31703968282199
STARLINK-2227           
1 48575U 21041Y   26176.63007722  .00005790  00000+0  19820-3 0  9999
2 48575  53.1592 306.0427 0001091  65.1570 294.9545 15.31700516282361
STARLINK-2228           
1 48576U 21041Z   26176.77298346  .00011802  00000+0  39169-3 0  9998
2 48576  53.1608 318.2215 0001307  80.2940 279.8209 15.31682725282202
STARLINK-2231           
1 48577U 21041AA  26176.73251578  .00000326  00000+0  22276-4 0  9992
2 48577  53.1613 344.2569 0001213  83.4512 276.6628 15.31703265281826
STARLINK-2232           
1 48578U 21041AB  26176.82570433  .00005589  00000+0  19172-3 0  9993
2 48578  53.1587 343.6522 0001105  89.8513 270.2615 15.31704578281846
STARLINK-2234           
1 48580U 21041AD  26176.79624890 -.00014515  00000+0 -45587-3 0  9999
2 48580  53.1610 318.0612 0000695  89.4131 270.6950 15.31771616282201
STARLINK-2235           
1 48581U 21041AE  26176.79731552  .00004334  00000+0  15134-3 0  9995
2 48581  53.1584 320.8957 0000965  58.0496 302.0599 15.31701575282151
STARLINK-2236           
1 48582U 21041AF  26176.83335647  .00206252  00000+0  48330-2 0  9992
2 48582  53.0525 321.0399 0001204  51.2541 162.1029 15.40818852  5896
STARLINK-2237           
1 48583U 21041AG  26176.73349760  .00005997  00000+0  20480-3 0  9993
2 48583  53.1593   6.3288 0001108  82.2032 277.9095 15.31710297281501
STARLINK-2241           
1 48586U 21041AK  26176.83603211  .00004122  00000+0  14459-3 0  9999
2 48586  53.1579   5.7894 0001348  80.8199 279.2955 15.31682624281511
STARLINK-2245           
1 48589U 21041AN  26176.84436559  .00003864  00000+0  13630-3 0  9994
2 48589  53.1589 343.6071 0001520  83.6154 276.5021 15.31677536281846
STARLINK-2250           
1 48593U 21041AS  26176.69898551 -.00000204  00000+0  52099-5 0  9996
2 48593  53.1597 357.4076 0001757  84.4074 275.7127 15.31700085281631
STARLINK-2251           
1 48594U 21041AT  26176.69480975 -.00000941  00000+0 -20304-4 0  9996
2 48594  53.1589 332.5069 0000781  43.4743 316.6319 15.29354176281982
